[Satellite]
VERSION=1.1
NAME=PHASE 3D (AO-40)
NICKNAME=AO-40
TLE1=1 26609U 00072B   11058.63441189 -.00000455  00000-0  10000-3 0  4863
TLE2=2 26609   7.8102 285.0619 7945596  44.8093 356.5363  1.25587305 47421
